{
  "links" : {
    "next" : "https://api.nasa.gov/neo/rest/v1/feed?start_date=2006-12-09&end_date=2006-12-09&detailed=true&api_key=t0TVs3DtDT2H8Oy2Zy8m2eVrNsAVKAexjcZXUckd",
    "prev" : "https://api.nasa.gov/neo/rest/v1/feed?start_date=2006-12-07&end_date=2006-12-07&detailed=true&api_key=t0TVs3DtDT2H8Oy2Zy8m2eVrNsAVKAexjcZXUckd",
    "self" : "https://api.nasa.gov/neo/rest/v1/feed?start_date=2006-12-08&end_date=2006-12-08&detailed=true&api_key=t0TVs3DtDT2H8Oy2Zy8m2eVrNsAVKAexjcZXUckd"
  },
  "element_count" : 4,
  "near_earth_objects" : {
    "2006-12-08" : [ {
      "links" : {
        "self" : "https://api.nasa.gov/neo/rest/v1/neo/2297418?api_key=t0TVs3DtDT2H8Oy2Zy8m2eVrNsAVKAexjcZXUckd"
      },
      "neo_reference_id" : "2297418",
      "name" : "297418 (2000 SP43)",
      "nasa_jpl_url" : "http://ssd.jpl.nasa.gov/sbdb.cgi?sstr=2297418",
      "absolute_magnitude_h" : 18.5,
      "estimated_diameter" : {
        "kilometers" : {
          "estimated_diameter_min" : 0.5303407233,
          "estimated_diameter_max" : 1.1858779086
        },
        "meters" : {
          "estimated_diameter_min" : 530.3407233187,
          "estimated_diameter_max" : 1185.8779085771
        },
        "miles" : {
          "estimated_diameter_min" : 0.3295383456,
          "estimated_diameter_max" : 0.7368701419
        },
        "feet" : {
          "estimated_diameter_min" : 1739.963058693,
          "estimated_diameter_max" : 3890.675677576
        }
      },
      "is_potentially_hazardous_asteroid" : true,
      "close_approach_data" : [ {
        "close_approach_date" : "2006-12-08",
        "epoch_date_close_approach" : 1165564800000,
        "relative_velocity" : {
          "kilometers_per_second" : "15.2645213667",
          "kilometers_per_hour" : "54952.2769202215",
          "miles_per_hour" : "34145.2078452343"
        },
        "miss_distance" : {
          "astronomical" : "0.1923968493",
          "lunar" : "74.842376709",
          "kilometers" : "28782160",
          "miles" : "17884404"
        },
        "orbiting_body" : "Earth"
      } ],
      "orbital_data" : {
        "orbit_id" : "119",
        "orbit_determination_date" : "2017-04-06 09:24:10",
        "orbit_uncertainty" : "0",
        "minimum_orbit_intersection" : ".0188446",
        "jupiter_tisserand_invariant" : "7.100",
        "epoch_osculation" : "2458000.5",
        "eccentricity" : ".4669622105465801",
        "semi_major_axis" : ".8113635191877953",
        "inclination" : "10.34982551763828",
        "ascending_node_longitude" : "350.5850178797646",
        "orbital_period" : "266.9449087161678",
        "perihelion_distance" : ".4324874167110099",
        "perihelion_argument" : "224.3798147262811",
        "aphelion_distance" : "1.190239621664581",
        "perihelion_time" : "2457878.297776759018",
        "mean_anomaly" : "164.8010466966027",
        "mean_motion" : "1.348592867836914",
        "equinox" : "J2000"
      }
    }, {
      "links" : {
        "self" : "https://api.nasa.gov/neo/rest/v1/neo/3360539?api_key=t0TVs3DtDT2H8Oy2Zy8m2eVrNsAVKAexjcZXUckd"
      },
      "neo_reference_id" : "3360539",
      "name" : "(2006 WT29)",
      "nasa_jpl_url" : "http://ssd.jpl.nasa.gov/sbdb.cgi?sstr=3360539",
      "absolute_magnitude_h" : 19.7,
      "estimated_diameter" : {
        "kilometers" : {
          "estimated_diameter_min" : 0.3051792326,
          "estimated_diameter_max" : 0.6824015094
        },
        "meters" : {
          "estimated_diameter_min" : 305.1792325939,
          "estimated_diameter_max" : 682.4015094011
        },
        "miles" : {
          "estimated_diameter_min" : 0.1896295249,
          "estimated_diameter_max" : 0.4240245083
        },
        "feet" : {
          "estimated_diameter_min" : 1001.2442334633,
          "estimated_diameter_max" : 2238.8501681036
        }
      },
      "is_potentially_hazardous_asteroid" : false,
      "close_approach_data" : [ {
        "close_approach_date" : "2006-12-08",
        "epoch_date_close_approach" : 1165564800000,
        "relative_velocity" : {
          "kilometers_per_second" : "17.1866788513",
          "kilometers_per_hour" : "61872.0438645835",
          "miles_per_hour" : "38444.881922413"
        },
        "miss_distance" : {
          "astronomical" : "0.4469645041",
          "lunar" : "173.8691864014",
          "kilometers" : "66864940",
          "miles" : "41547948"
        },
        "orbiting_body" : "Earth"
      } ],
      "orbital_data" : {
        "orbit_id" : "21",
        "orbit_determination_date" : "2017-06-20 06:19:26",
        "orbit_uncertainty" : "0",
        "minimum_orbit_intersection" : ".214721",
        "jupiter_tisserand_invariant" : "3.961",
        "epoch_osculation" : "2458000.5",
        "eccentricity" : ".312757660577098",
        "semi_major_axis" : "1.716264322456021",
        "inclination" : "31.59024451953924",
        "ascending_node_longitude" : "259.5832443649387",
        "orbital_period" : "821.2486877629087",
        "perihelion_distance" : "1.179489508032737",
        "perihelion_argument" : "156.9524126813521",
        "aphelion_distance" : "2.253039136879304",
        "perihelion_time" : "2458138.921917788949",
        "mean_anomaly" : "299.3218020965559",
        "mean_motion" : ".4383568648135613",
        "equinox" : "J2000"
      }
    }, {
      "links" : {
        "self" : "https://api.nasa.gov/neo/rest/v1/neo/3363346?api_key=t0TVs3DtDT2H8Oy2Zy8m2eVrNsAVKAexjcZXUckd"
      },
      "neo_reference_id" : "3363346",
      "name" : "(2006 XW)",
      "nasa_jpl_url" : "http://ssd.jpl.nasa.gov/sbdb.cgi?sstr=3363346",
      "absolute_magnitude_h" : 23.6,
      "estimated_diameter" : {
        "kilometers" : {
          "estimated_diameter_min" : 0.0506471459,
          "estimated_diameter_max" : 0.1132504611
        },
        "meters" : {
          "estimated_diameter_min" : 50.6471458835,
          "estimated_diameter_max" : 113.2504610618
        },
        "miles" : {
          "estimated_diameter_min" : 0.0314706677,
          "estimated_diameter_max" : 0.0703705522
        },
        "feet" : {
          "estimated_diameter_min" : 166.1651821003,
          "estimated_diameter_max" : 371.5566426699
        }
      },
      "is_potentially_hazardous_asteroid" : false,
      "close_approach_data" : [ {
        "close_approach_date" : "2006-12-08",
        "epoch_date_close_approach" : 1165564800000,
        "relative_velocity" : {
          "kilometers_per_second" : "4.861916594",
          "kilometers_per_hour" : "17502.899738368",
          "miles_per_hour" : "10875.6212290987"
        },
        "miss_distance" : {
          "astronomical" : "0.1449265449",
          "lunar" : "56.3764266968",
          "kilometers" : "21680704",
          "miles" : "13471764"
        },
        "orbiting_body" : "Earth"
      } ],
      "orbital_data" : {
        "orbit_id" : "11",
        "orbit_determination_date" : "2017-04-06 09:07:26",
        "orbit_uncertainty" : "7",
        "minimum_orbit_intersection" : ".0586503",
        "jupiter_tisserand_invariant" : "5.632",
        "epoch_osculation" : "2458000.5",
        "eccentricity" : ".03747285039073295",
        "semi_major_axis" : "1.102145523613481",
        "inclination" : "8.208947501677214",
        "ascending_node_longitude" : "75.84362786838756",
        "orbital_period" : "422.6266102781403",
        "perihelion_distance" : "1.060844989298297",
        "perihelion_argument" : "229.8150887089501",
        "aphelion_distance" : "1.143446057928665",
        "perihelion_time" : "2458152.772388707074",
        "mean_anomaly" : "230.2919820915451",
        "mean_motion" : ".8518157428919957",
        "equinox" : "J2000"
      }
    }, {
      "links" : {
        "self" : "https://api.nasa.gov/neo/rest/v1/neo/3673546?api_key=t0TVs3DtDT2H8Oy2Zy8m2eVrNsAVKAexjcZXUckd"
      },
      "neo_reference_id" : "3673546",
      "name" : "(2014 LX14)",
      "nasa_jpl_url" : "http://ssd.jpl.nasa.gov/sbdb.cgi?sstr=3673546",
      "absolute_magnitude_h" : 21.7,
      "estimated_diameter" : {
        "kilometers" : {
          "estimated_diameter_min" : 0.1214940408,
          "estimated_diameter_max" : 0.2716689341
        },
        "meters" : {
          "estimated_diameter_min" : 121.4940407996,
          "estimated_diameter_max" : 271.6689340891
        },
        "miles" : {
          "estimated_diameter_min" : 0.0754928736,
          "estimated_diameter_max" : 0.1688071972
        },
        "feet" : {
          "estimated_diameter_min" : 398.6025088171,
          "estimated_diameter_max" : 891.3023057169
        }
      },
      "is_potentially_hazardous_asteroid" : false,
      "close_approach_data" : [ {
        "close_approach_date" : "2006-12-08",
        "epoch_date_close_approach" : 1165564800000,
        "relative_velocity" : {
          "kilometers_per_second" : "9.0549481334",
          "kilometers_per_hour" : "32597.8132801988",
          "miles_per_hour" : "20255.0134795769"
        },
        "miss_distance" : {
          "astronomical" : "0.4951574206",
          "lunar" : "192.6162414551",
          "kilometers" : "74074496",
          "miles" : "46027760"
        },
        "orbiting_body" : "Earth"
      } ],
      "orbital_data" : {
        "orbit_id" : "11",
        "orbit_determination_date" : "2017-04-06 08:40:09",
        "orbit_uncertainty" : "3",
        "minimum_orbit_intersection" : ".297285",
        "jupiter_tisserand_invariant" : "4.721",
        "epoch_osculation" : "2458000.5",
        "eccentricity" : ".09520041049339993",
        "semi_major_axis" : "1.399286564576187",
        "inclination" : "13.92016518140262",
        "ascending_node_longitude" : "248.695590103389",
        "orbital_period" : "604.5864690204209",
        "perihelion_distance" : "1.266073909230635",
        "perihelion_argument" : "63.87215241137471",
        "aphelion_distance" : "1.53249921992174",
        "perihelion_time" : "2458110.990082715537",
        "mean_anomaly" : "294.2088653719941",
        "mean_motion" : ".5954483245106176",
        "equinox" : "J2000"
      }
    } ]
  }
}